
 1 90007U SGP4-VAL 93051.03935584 +.00000209  00000 0  99999-4 0 1844                                                                                                                                                                                                                                                                                                                                                                                                                                                           
 2 90007  64.3870 233.3668 6991935 271.4388  16.5332  1.9699794003847                                                                                                                                                                                                                                                                                                                                                                                                                                                           

         0.0000000        1.9700877        0.6991935       64.3870000      233.3668000      271.4388000       16.5332000
      2700.0000000        1.9700939        0.6991068       64.3867589      233.1598690      271.4168852      266.2922557
      5400.0000000        1.9701195        0.6990200       64.3865178      232.9529381      271.3949703      156.0622439
      8100.0000000        1.9701594        0.6989333       64.3862767      232.7460071      271.3730555       45.8547586
     10800.0000000        1.9702057        0.6988465       64.3860356      232.5390761      271.3511407      295.6769088
     13500.0000000        1.9702500        0.6987598       64.3857944      232.3321452      271.3292259      185.5301765
     16200.0000000        1.9702848        0.6986730       64.3855533      232.1252142      271.3073110       75.4105582
     18900.0000000        1.9703046        0.6985863       64.3853122      231.9182833      271.2853962      325.3096418
     21600.0000000        1.9703065        0.6984995       64.3850711      231.7113523      271.2634814      215.2161882
     24300.0000000        1.9702905        0.6984128       64.3848300      231.5044213      271.2415665      105.1178845
     27000.0000000        1.9702587        0.6983261       64.3845889      231.2974904      271.2196517      355.0032042
     29700.0000000        1.9702161        0.6982393       64.3843478      231.0905594      271.1977369      244.8630350
     32400.0000000        1.9701696        0.6981526       64.3841067      230.8836284      271.1758220      134.6923152
     35100.0000000        1.9701277        0.6980658       64.3838656      230.6766975      271.1539072       24.4912410
     37800.0000000        1.9700983        0.6979791       64.3836244      230.4697665      271.1319924      274.2656092
     40500.0000000        1.9700873        0.6978923       64.3833833      230.2628355      271.1100776      164.0260470
     43200.0000000        1.9700971        0.6978056       64.3831422      230.0559045      271.0881627       53.7860620


 1 90008U SGP4-VAL 93051.15714066 -.00000031  00000 0 -13568-4 0 0377                                                                                                                                                                                                                                                                                                                                                                                                                                                           
 2 90008  72.5157 115.6068 0011430 124.7615 235.4297 12.4439648802428                                                                                                                                                                                                                                                                                                                                                                                                                                                           

         0.0000000       12.4488095        0.0011430       72.5157000      115.6068000      124.7615000      235.4297000
      2700.0000000       12.4488094        0.0011430       72.5157000      112.9151062      122.2994780      355.1048400
      5400.0000000       12.4488094        0.0011430       72.5157000      110.2234125      119.8374592      114.7799282
      8100.0000000       12.4488093        0.0011430       72.5157000      107.5317188      117.3754390      234.4549692
     10800.0000000       12.4488092        0.0011430       72.5157000      104.8400251      114.9134169      354.1299635
     13500.0000000       12.4488091        0.0011430       72.5157000      102.1483315      112.4513981      113.8049060
     16200.0000000       12.4488091        0.0011430       72.5157000       99.4566379      109.9893780      233.4798013
     18900.0000000       12.4488090        0.0011430       72.5157000       96.7649443      107.5273559      353.1546500
     21600.0000000       12.4488089        0.0011430       72.5157000       94.0732508      105.0653370      112.8294469
     24300.0000000       12.4488089        0.0011430       72.5157000       91.3815573      102.6033169      232.5041964
     27000.0000000       12.4488088        0.0011430       72.5157000       88.6898639      100.1412949      352.1788994
     29700.0000000       12.4488087        0.0011430       72.5157000       85.9981705       97.6792760      111.8535507
     32400.0000000       12.4488086        0.0011430       72.5157000       83.3064771       95.2172559      231.5281546
     35100.0000000       12.4488086        0.0011430       72.5157000       80.6147837       92.7552338      351.2027119
     37800.0000000       12.4488085        0.0011430       72.5157000       77.9230904       90.2932149      110.8772175
     40500.0000000       12.4488084        0.0011430       72.5157000       75.2313972       87.8311949      230.5516757
     43200.0000000       12.4488084        0.0011430       72.5157000       72.5397039       85.3691728      350.2260874


 1 90009U SGP4-VAL 93051.38558242 +.00000961  00000 0  44365-3 0 5319                                                                                                                                                                                                                                                                                                                                                                                                                                                           
 2 90009  98.7063 100.2835 0014146 119.4841 240.7749 14.2193618701011                                                                                                                                                                                                                                                                                                                                                                                                                                                           

         0.0000000       14.2278081        0.0014146       98.7063000      100.2835000      119.4841000      240.7749000
      2700.0000000       14.2278449        0.0014146       98.7063000      102.1337278      114.0692242      118.8528408
      5400.0000000       14.2278816        0.0014146       98.7063000      103.9839668      108.6549086      356.9550152
      8100.0000000       14.2279183        0.0014146       98.7063000      105.8342170      103.2394342      235.0831440
     10800.0000000       14.2279551        0.0014145       98.7063000      107.6844783       97.8246242      113.2354057
     13500.0000000       14.2279918        0.0014145       98.7063000      109.5347509       92.4102706      351.4120099
     16200.0000000       14.2280286        0.0014145       98.7063000      111.3850346       86.9947707      229.6145613
     18900.0000000       14.2280653        0.0014145       98.7063000      113.2353294       81.5800257      107.8411602
     21600.0000000       14.2281021        0.0014145       98.7063000      115.0856355       76.1656286      346.0922156
     24300.0000000       14.2281388        0.0014145       98.7063000      116.9359527       70.7501097      224.3691988
     27000.0000000       14.2281756        0.0014145       98.7063000      118.7862811       65.3354285      102.6701521
     29700.0000000       14.2282123        0.0014145       98.7063000      120.6366207       59.9209828      340.9956794
     32400.0000000       14.2282491        0.0014145       98.7063000      122.4869715       54.5054515      219.3471037
     35100.0000000       14.2282858        0.0014145       98.7063000      124.3373334       49.0908321       97.7224290
     37800.0000000       14.2283226        0.0014145       98.7063000      126.1877065       43.6763334      336.1224485
     40500.0000000       14.2283594        0.0014145       98.7063000      128.0380908       38.2607963      214.5483228
     43200.0000000       14.2283961        0.0014144       98.7063000      129.8884863       32.8462363       92.9980385

